[Satellite]
VERSION=1.1
NAME=GLOBALSTAR M006
NICKNAME=GLOBALSTAR M006
TLE1=1 25307U 98023B   15054.61746972 -.00000080  00000-0  13529-3 0  9998
TLE2=2 25307  51.9974  85.0037 0000613  97.7175  51.8817 12.62268148776575
